AISTECHSAT 2            
1 43768U 18099L   24112.09755553  .00010785  00000+0  82763-3 0  9993
2 43768  97.5429 167.7262 0006307 126.3232 233.8576 15.01942122293557
FOX-1CLIFF (AO-95)      
1 43770U 18099N   24112.73447710  .00016720  00000+0  11914-2 0  9994
2 43770  97.5499 171.8168 0014307 188.8924 171.2051 15.04576963294078
2018-099Q               
1 43772U 18099Q   24112.69952924  .00025107  00000+0  16247-2 0  9992
2 43772  97.5298 175.0842 0007119 106.1923 254.0089 15.08133378294206
RANGE-A                 
1 43773U 18099R   24112.14580376  .00009304  00000+0  71991-3 0  9990
2 43773  97.5120 167.2289 0016198 163.7113 196.4636 15.01577914293876
HIBER-2                 
1 43774U 18099S   24112.70806983  .00029377  00000+0  18282-2 0  9993
2 43774  97.5489 175.9667 0011267 140.2138 219.9919 15.09500769294249
MOVE-II                 
1 43780U 18099Y   24112.73533931  .00036976  00000+0  20817-2 0  9993
2 43780  97.5262 176.3421 0008197 165.5711 194.5755 15.13102773294382
VESTA-1                 
1 43781U 18099Z   24112.64362391  .00030463  00000+0  20040-2 0  9997
2 43781  97.5238 171.5860 0007855 160.7877 199.3649 15.07478017294161
SNUSAT-2                
1 43782U 18099AA  24112.71939847  .00015574  00000+0  11308-2 0  9995
2 43782  97.5177 171.2535 0016066 133.7296 226.5263 15.03862250294087
SNUGLITE                
1 43784U 18099AC  24112.64596562  .00018601  00000+0  13153-2 0  9996
2 43784  97.5003 170.5619 0005782 138.3484 221.8183 15.04907592294130
ITASAT                  
1 43786U 18099AE  24112.10237692  .00011729  00000+0  86630-3 0  9990
2 43786  97.5175 170.9984 0018157 182.5591 177.5545 15.03257035293992
KAZSCISAT-1             
1 43787U 18099AF  24112.71781494  .00035978  00000+0  20878-2 0  9995
2 43787  97.5120 173.7569 0007956 143.4144 216.7631 15.12021206294394
EAGLET-I                
1 43790U 18099AJ  24112.69887923  .00011007  00000+0  83927-3 0  9992
2 43790  97.5370 172.0373 0015506 159.0721 201.1142 15.02100760293794
ESEO                    
1 43792U 18099AL  24112.14997189  .00005014  00000+0  41513-3 0  9996
2 43792  97.5210 168.7189 0013071 162.8572 197.3096 14.99243467293653
CSIM-FD                 
1 43793U 18099AM  24112.71994749  .00034343  00000+0  19359-2 0  9998
2 43793  97.5338 178.0034 0014716 145.2900 214.9294 15.13011615294231
ORBWEAVER 1             
1 43795U 18099AP  24112.76469029  .00119801  00000+0  38844-2 0  9996
2 43795  97.5334 184.9207 0002130 116.6588 243.4871 15.31489109294941
THEA                    
1 43796U 18099AQ  24112.75748725  .00018999  00000+0  12857-2 0  9991
2 43796  97.5510 175.8231 0014924 145.6198 214.5998 15.06466443294281
ASTROCAST 0.1           
1 43798U 18099AS  24112.70823970  .00030316  00000+0  18688-2 0  9999
2 43798  97.5408 176.6257 0012086 123.5210 236.7175 15.09833002294356
JY1SAT (JO-97)          
1 43803U 18099AX  24112.71920031  .00020549  00000+0  14087-2 0  9999
2 43803  97.5253 172.6817 0011448 133.8787 226.3388 15.06007166294197
SUOMI-100               
1 43804U 18099AY  24112.67756778  .00018188  00000+0  12669-2 0  9990
2 43804  97.5330 172.4499 0017938 132.2390 228.0362 15.05359787294178
AL-FARABI 2             
1 43805U 18099AZ  24112.69052840  .00026521  00000+0  16689-2 0  9998
2 43805  97.5156 174.0313 0012792 125.6808 234.5614 15.09101915294311
CENTAURI-1              
1 43809U 18099BD  24112.15211707  .00010384  00000+0  77530-3 0  9995
2 43809  97.5364 171.1259 0020605 149.0553 211.1891 15.02839096293714
GLOBAL-2                
1 43812U 18099BG  24112.70986343  .00010179  00000+0  82031-3 0  9999
2 43812  97.4893 169.5477 0004367 293.9787  66.0979 15.00092517293623
BRIO                    
1 43813U 18099BH  24112.73338762  .00038429  00000+0  21862-2 0  9991
2 43813  97.5722 181.4310 0008503 127.3491 232.8515 15.12716676294131
SEAHAWK-1               
1 43820U 18099BQ  24112.67126059  .00015465  00000+0  11188-2 0  9991
2 43820  97.5094 170.6848 0013761 145.8858 214.3255 15.04029385293535
SAUDISAT 5A             
1 43831U 18102A   24112.79475223  .00012539  00000+0  67022-3 0  9999
2 43831  97.4123 179.7986 0012780  21.7657 338.4116 15.15152380296059
SAUDISAT 5B             
1 43833U 18102C   24112.85664545  .00012654  00000+0  66426-3 0  9990
2 43833  97.4169 181.5908 0013659  25.6511 334.5396 15.15780940296140
2018-102D               
1 43834U 18102D   24112.81910130  .00025895  00000+0  11943-2 0  9995
2 43834  97.4280 185.1901 0011364  19.5051 340.6617 15.20170518296324
2018-102E               
1 43835U 18102E   24112.80941492  .00052288  00000+0  17479-2 0  9996
2 43835  97.4318 190.5237 0008800   0.8250 359.3004 15.30786782296676
2018-102F               
1 43836U 18102F   24112.80039480  .00054226  00000+0  17741-2 0  9998
2 43836  97.4374 192.0444 0008813   0.9671 359.1586 15.31471973296697
2018-102G               
1 43837U 18102G   24112.85193026  .00061530  00000+0  18795-2 0  9997
2 43837  97.4398 193.5420 0008385 358.5122   1.6094 15.33637451296804
2018-102H               
1 43838U 18102H   24112.83026474  .00111772  00000+0  25525-2 0  9991
2 43838  97.4009 194.1928 0007801 338.3487  21.7429 15.42411843296963
2018-102J               
1 43839U 18102J   24112.85023776  .00056251  00000+0  18051-2 0  9992
2 43839  97.4562 196.5277 0009849   3.9888 356.1430 15.32074842296808
CHOMPTT                 
1 43855U 18104G   24112.75674285  .00493388  89264-4  17506-2 0  9992
2 43855  85.0054 310.4804 0004455 206.2103 153.8950 15.88948999298685
CP11 (ISX)              
1 43856U 18104H   24112.57187223  .00424646  00000+0  17727-2 0  9996
2 43856  85.0031 313.9744 0003926 246.7246 113.3616 15.84608044298254
ISAT                    
1 43879U 18111D   24112.74115582  .00024151  00000+0  15332-2 0  9994
2 43879  97.6254  18.7691 0013277 182.8079 177.3077 15.08796305288883
UWE-4                   
1 43880U 18111E   24112.69480895  .00022611  00000+0  14648-2 0  9990
2 43880  97.6152  18.8785 0016499 195.3971 164.6758 15.08025307288912
D-STAR ONE (SPARROW)    
1 43881U 18111F   24112.26670982  .00017763  00000+0  11170-2 0  9991
2 43881  97.6332  20.0940 0008726 224.9059 135.1465 15.09253031290897
LEMUR-2-TINYKEV         
1 43883U 18111H   24112.74211042  .00053675  00000+0  25327-2 0  9995
2 43883  97.6182  25.1582 0010259 145.7458 214.4440 15.19215731289312
LEMUR-2-REMY-COLTON     
1 43884U 18111J   24112.71467302  .00045589  00000+0  23190-2 0  9996
2 43884  97.6322  25.7236 0003175 120.2849 239.8698 15.16677721289282
ZACUBE-2                
1 43907U 18111AH  24112.77438020  .02699933  22388-5  15923-2 0  9997
2 43907  97.0642 356.6891 0007712 188.7183 171.3973 16.18591821297342
MICRODRAGON             
1 43935U 19003D   24112.79286563  .00092694  00000+0  14168-2 0  9994
2 43935  97.0823 129.0516 0006474 242.4020 117.6577 15.54062002293153
JILIN-1 09              
1 43943U 19005B   24112.85209866  .00016951  00000+0  86172-3 0  9990
2 43943  97.4862 207.3270 0019012 137.5139 222.7570 15.16767563289959
JILIN-1 10              
1 43946U 19005E   24112.81793197  .00018801  00000+0  94690-3 0  9994
2 43946  97.4859 207.3373 0031136 134.5862 225.7920 15.16800726289875
EGYPTSAT-A (MISRSAT-A)  
1 44047U 19008A   24112.83222863  .00002986  00000+0  47954-3 0  9997
2 44047  98.0113 177.8851 0001344 107.0562 253.0793 14.72364941277537
EMISAT                  
1 44078U 19018A   24112.79199005  .00001211  00000+0  36780-3 0  9993
2 44078  98.3422 173.1781 0019587  76.7671 283.5703 14.43745109266588
AIS & APRS & ARIS & R/B 
1 44104U 19018AC  24112.52109338  .00187645  00000+0  10868-2 0  9998
2 44104  97.3614 219.6009 0020453 193.4734 166.5989 15.77753421283882
JILIN-1 GAOFEN 3A       
1 44312U 19032C   24112.81894428  .00018986  00000+0  11485-2 0  9995
2 44312  44.9832 292.7373 0011034 161.9248 198.2022 15.10375642268137
XIAOXIANG 4             
1 44313U 19032D   24112.83653440  .00035486  00000+0  17884-2 0  9998
2 44313  44.9906 279.9765 0011001 180.5041 179.5828 15.16586338268312
WT 1A                   
1 44315U 19032F   24112.81520156  .00028824  00000+0  15333-2 0  9990
2 44315  44.9785 274.9856 0013894 186.3909 173.6793 15.14744843268337
WT 1B                   
1 44316U 19032G   24112.79000272  .00012929  00000+0  87935-3 0  9997
2 44316  44.9810 323.9632 0014253 127.8145 232.4022 15.06285479267723
PROX-1                  
1 44339U 19036A   24112.55066307  .00019071  00000+0  34087-2 0  9995
2 44339  23.9994 229.3973 0009752  88.0846 272.0764 14.65374426256927
NPSAT1                  
1 44340U 19036B   24112.72242717  .00013666  00000+0  26980-2 0  9994
2 44340  23.9998 250.0780 0010378  48.6153 311.5231 14.60748360256823
FORMOSAT 7-3            
1 44343U 19036E   24112.56036906  .00016510  00000+0  98161-3 0  9992
2 44343  23.9992 181.3861 0000703 315.1495  44.8951 15.09457414264328
FORMOSAT 7-1            
1 44349U 19036L   24112.82491848  .00017964  00000+0  10695-2 0  9996
2 44349  23.9999 355.5645 0002568 334.2105  25.8270 15.09459303266196
FORMOSAT 7-4            
1 44350U 19036M   24112.25176396  .00014043  00000+0  83264-3 0  9991
2 44350  23.9995  61.5956 0002562 302.5168  57.5088 15.09429325265463
FORMOSAT 7-2            
1 44351U 19036N   24112.40640646  .00013185  00000+0  78073-3 0  9991
2 44351  23.9979 114.8591 0001944 270.8488  89.1793 15.09424270265006
FORMOSAT 7-6            
1 44353U 19036Q   24112.60461525  .00017376  00000+0  10341-2 0  9991
2 44353  23.9994 294.3165 0001035  25.1168 334.9386 15.09455175263266
FORMOSAT 7-5            
1 44358U 19036V   24112.64791831  .00017903  00000+0  10658-2 0  9993
2 44358  23.9992 233.7841 0002053 112.0799 247.9923 15.09459409263875
METEOR-M2 2             
1 44387U 19038A   24112.86422567  .00000261  00000+0  13364-3 0  9995
2 44387  98.8226  81.8811 0002287 106.4265 253.7165 14.23873463249378
